start=new Date('2023-03-15T00:00:00.000Z').valueOf();
sats=[{"MEAN_MOTION_DDOT":"0.0000000000000","OBJECT_TYPE":"PAYLOAD","ECCENTRICITY":"0.00016680","NORAD_CAT_ID":"53471","DECAY_DATE":null,"TLE_LINE1":"1 53471U 22099G   23073.61724628  .00006596  00000-0  51742-3 0  9991","CLASSIFICATION_TYPE":"U","FILE":"3860615","INCLINATION":"97.6537","MEAN_ANOMALY":"271.7448","PERIAPSIS":"561.797","PERIOD":"95.918","REF_FRAME":"TEME","EPOCH":"2023-03-14T14:48:50.078592","APOAPSIS":"564.113","REV_AT_EPOCH":"3252","EPHEMERIS_TYPE":"0","OBJECT_ID":"2022-099G","TIME_SYSTEM":"UTC","BSTAR":"0.00051742000000","MEAN_MOTION":"15.01278443","OBJECT_NAME":"STARLINK-4316","COUNTRY_CODE":"US","GP_ID":"228085116","MEAN_ELEMENT_THEORY":"SGP4","ELEMENT_SET_NO":"999","ARG_OF_PERICENTER":"88.3968","RCS_SIZE":"LARGE","TLE_LINE2":"2 53471  97.6537 196.0543 0001668  88.3968 271.7448 15.01278443 32520","SITE":"AFWTR","RA_OF_ASC_NODE":"196.0543","MEAN_MOTION_DOT":"0.00006596","CENTER_NAME":"EARTH","SEMIMAJOR_AXIS":"6941.090","LAUNCH_DATE":"2022-08-12"},{"LAUNCH_DATE":"2022-08-12","SEMIMAJOR_AXIS":"6941.108","RA_OF_ASC_NODE":"196.0570","MEAN_MOTION_DOT":"0.00002460","CENTER_NAME":"EARTH","SITE":"AFWTR","OBJECT_NAME":"STARLINK-4447","COUNTRY_CODE":"US","GP_ID":"228085113","ELEMENT_SET_NO":"999","ARG_OF_PERICENTER":"89.2468","MEAN_ELEMENT_THEORY":"SGP4","TLE_LINE2":"2 53472  97.6565 196.0570 0001561  89.2468 270.8935 15.01272669 32524","RCS_SIZE":"LARGE","OBJECT_ID":"2022-099H","TIME_SYSTEM":"UTC","BSTAR":"0.00019598000000","MEAN_MOTION":"15.01272669","REV_AT_EPOCH":"3252","EPHEMERIS_TYPE":"0","APOAPSIS":"564.056","REF_FRAME":"TEME","EPOCH":"2023-03-14T14:51:29.801952","PERIOD":"95.919","MEAN_ANOMALY":"270.8935","FILE":"3860615","INCLINATION":"97.6565","PERIAPSIS":"561.889","DECAY_DATE":null,"TLE_LINE1":"1 53472U 22099H   23073.61909493  .00002460  00000-0  19598-3 0  9996","CLASSIFICATION_TYPE":"U","MEAN_MOTION_DDOT":"0.0000000000000","OBJECT_TYPE":"PAYLOAD","ECCENTRICITY":"0.00015610","NORAD_CAT_ID":"53472"},{"MEAN_MOTION":"15.01270030","TIME_SYSTEM":"UTC","OBJECT_ID":"2022-099J","BSTAR":"0.00039537000000","REV_AT_EPOCH":"3231","EPHEMERIS_TYPE":"0","MEAN_MOTION_DOT":"0.00005024","CENTER_NAME":"EARTH","RA_OF_ASC_NODE":"196.2532","SEMIMAJOR_AXIS":"6941.116","LAUNCH_DATE":"2022-08-12","RCS_SIZE":"LARGE","TLE_LINE2":"2 53473  97.6551 196.2532 0002192 106.1787 253.9678 15.01270030 32317","OBJECT_NAME":"STARLINK-4383","GP_ID":"228111098","COUNTRY_CODE":"US","MEAN_ELEMENT_THEORY":"SGP4","ELEMENT_SET_NO":"999","ARG_OF_PERICENTER":"106.1787","SITE":"AFWTR","TLE_LINE1":"1 53473U 22099J   23073.81349977  .00005024  00000-0  39537-3 0  9998","CLASSIFICATION_TYPE":"U","DECAY_DATE":null,"ECCENTRICITY":"0.00021920","OBJECT_TYPE":"PAYLOAD","NORAD_CAT_ID":"53473","MEAN_MOTION_DDOT":"0.0000000000000","REF_FRAME":"TEME","EPOCH":"2023-03-14T19:31:26.380128","APOAPSIS":"564.502","PERIAPSIS":"561.459","INCLINATION":"97.6551","FILE":"3860643","MEAN_ANOMALY":"253.9678","PERIOD":"95.919"},{"REF_FRAME":"TEME","EPOCH":"2023-03-14T19:21:07.582464","APOAPSIS":"563.879","PERIAPSIS":"562.087","INCLINATION":"97.6540","FILE":"3860643","MEAN_ANOMALY":"261.1572","PERIOD":"95.919","TLE_LINE1":"1 53474U 22099K   23073.80633776  .00011443  00000-0  89386-3 0  9990","CLASSIFICATION_TYPE":"U","DECAY_DATE":null,"ECCENTRICITY":"0.00012910","OBJECT_TYPE":"PAYLOAD","NORAD_CAT_ID":"53474","MEAN_MOTION_DDOT":"0.0000000000000","MEAN_MOTION_DOT":"0.00011443","CENTER_NAME":"EARTH","RA_OF_ASC_NODE":"196.2466","LAUNCH_DATE":"2022-08-12","SEMIMAJOR_AXIS":"6941.118","RCS_SIZE":"LARGE","TLE_LINE2":"2 53474  97.6540 196.2466 0001291  98.9799 261.1572 15.01269368 32318","OBJECT_NAME":"STARLINK-4445","GP_ID":"228110085","ARG_OF_PERICENTER":"98.9799","COUNTRY_CODE":"US","ELEMENT_SET_NO":"999","MEAN_ELEMENT_THEORY":"SGP4","SITE":"AFWTR","MEAN_MOTION":"15.01269368","TIME_SYSTEM":"UTC","OBJECT_ID":"2022-099K","BSTAR":"0.00089386000000","REV_AT_EPOCH":"3231","EPHEMERIS_TYPE":"0"},{"LAUNCH_DATE":"2022-08-12","SEMIMAJOR_AXIS":"6941.117","RA_OF_ASC_NODE":"196.0543","CENTER_NAME":"EARTH","MEAN_MOTION_DOT":"0.00007542","SITE":"AFWTR","OBJECT_NAME":"STARLINK-4389","GP_ID":"228085424","ARG_OF_PERICENTER":"96.5332","COUNTRY_CODE":"US","ELEMENT_SET_NO":"999","MEAN_ELEMENT_THEORY":"SGP4","RCS_SIZE":"LARGE","TLE_LINE2":"2 53475  97.6545 196.0543 0002174  96.5332 263.6139 15.01269538 32524","OBJECT_ID":"2022-099L","TIME_SYSTEM":"UTC","BSTAR":"0.00059101000000","MEAN_MOTION":"15.01269538","REV_AT_EPOCH":"3252","EPHEMERIS_TYPE":"0","APOAPSIS":"564.491","REF_FRAME":"TEME","EPOCH":"2023-03-14T14:40:51.094272","PERIOD":"95.919","INCLINATION":"97.6545","FILE":"3860615","MEAN_ANOMALY":"263.6139","PERIAPSIS":"561.473","DECAY_DATE":null,"TLE_LINE1":"1 53475U 22099L   23073.61170248  .00007542  00000-0  59101-3 0  9997","CLASSIFICATION_TYPE":"U","MEAN_MOTION_DDOT":"0.0000000000000","ECCENTRICITY":"0.00021740","OBJECT_TYPE":"PAYLOAD","NORAD_CAT_ID":"53475"},{"MEAN_MOTION_DOT":"0.00020617","CENTER_NAME":"EARTH","RA_OF_ASC_NODE":"196.0539","LAUNCH_DATE":"2022-08-12","SEMIMAJOR_AXIS":"6941.086","TLE_LINE2":"2 53476  97.6533 196.0539 0001493 104.1155 256.0235 15.01279583 32523","RCS_SIZE":"LARGE","OBJECT_NAME":"STARLINK-4378","COUNTRY_CODE":"US","GP_ID":"228085112","ELEMENT_SET_NO":"999","ARG_OF_PERICENTER":"104.1155","MEAN_ELEMENT_THEORY":"SGP4","SITE":"AFWTR","MEAN_MOTION":"15.01279583","OBJECT_ID":"2022-099M","TIME_SYSTEM":"UTC","BSTAR":"0.00160420000000","REV_AT_EPOCH":"3252","EPHEMERIS_TYPE":"0","EPOCH":"2023-03-14T14:46:10.081344","REF_FRAME":"TEME","APOAPSIS":"563.988","PERIAPSIS":"561.915","INCLINATION":"97.6533","FILE":"3860615","MEAN_ANOMALY":"256.0235","PERIOD":"95.918","TLE_LINE1":"1 53476U 22099M   23073.61539446  .00020617  00000-0  16042-2 0  9991","CLASSIFICATION_TYPE":"U","DECAY_DATE":null,"ECCENTRICITY":"0.00014930","OBJECT_TYPE":"PAYLOAD","NORAD_CAT_ID":"53476","MEAN_MOTION_DDOT":"0.0000000000000"},{"CLASSIFICATION_TYPE":"U","TLE_LINE1":"1 53477U 22099N   23073.60798712  .00002169  00000-0  17342-3 0  9991","DECAY_DATE":null,"NORAD_CAT_ID":"53477","OBJECT_TYPE":"PAYLOAD","ECCENTRICITY":"0.00023130","MEAN_MOTION_DDOT":"0.0000000000000","REF_FRAME":"TEME","EPOCH":"2023-03-14T14:35:30.087168","APOAPSIS":"564.604","PERIAPSIS":"561.393","FILE":"3860373","INCLINATION":"97.6529","MEAN_ANOMALY":"258.1743","PERIOD":"95.919","MEAN_MOTION":"15.01264299","BSTAR":"0.00017342000000","TIME_SYSTEM":"UTC","OBJECT_ID":"2022-099N","EPHEMERIS_TYPE":"0","REV_AT_EPOCH":"3298","MEAN_MOTION_DOT":"0.00002169","CENTER_NAME":"EARTH","RA_OF_ASC_NODE":"196.0500","LAUNCH_DATE":"2022-08-12","SEMIMAJOR_AXIS":"6941.134","TLE_LINE2":"2 53477  97.6529 196.0500 0002313 101.9741 258.1743 15.01264299 32980","RCS_SIZE":"LARGE","GP_ID":"228078653","ARG_OF_PERICENTER":"101.9741","COUNTRY_CODE":"US","ELEMENT_SET_NO":"999","MEAN_ELEMENT_THEORY":"SGP4","OBJECT_NAME":"STARLINK-4412","SITE":"AFWTR"},{"PERIOD":"95.919","PERIAPSIS":"561.878","FILE":"3860321","INCLINATION":"97.6545","MEAN_ANOMALY":"273.1027","APOAPSIS":"564.107","EPOCH":"2023-03-14T14:43:51.448224","REF_FRAME":"TEME","NORAD_CAT_ID":"53478","ECCENTRICITY":"0.00016060","OBJECT_TYPE":"PAYLOAD","MEAN_MOTION_DDOT":"0.0000000000000","CLASSIFICATION_TYPE":"U","TLE_LINE1":"1 53478U 22099P   23073.61378991  .00010005  00000-0  78232-3 0  9999","DECAY_DATE":null,"SITE":"AFWTR","TLE_LINE2":"2 53478  97.6545 196.0559 0001606  87.0381 273.1027 15.01266281 32526","RCS_SIZE":"LARGE","COUNTRY_CODE":"US","GP_ID":"228052545","ELEMENT_SET_NO":"999","MEAN_ELEMENT_THEORY":"SGP4","ARG_OF_PERICENTER":"87.0381","OBJECT_NAME":"STARLINK-4433","LAUNCH_DATE":"2022-08-12","SEMIMAJOR_AXIS":"6941.127","MEAN_MOTION_DOT":"0.00010005","CENTER_NAME":"EARTH","RA_OF_ASC_NODE":"196.0559","EPHEMERIS_TYPE":"0","REV_AT_EPOCH":"3252","MEAN_MOTION":"15.01266281","BSTAR":"0.00078232000000","OBJECT_ID":"2022-099P","TIME_SYSTEM":"UTC"},{"RA_OF_ASC_NODE":"196.2460","MEAN_MOTION_DOT":"0.00014589","CENTER_NAME":"EARTH","LAUNCH_DATE":"2022-08-12","SEMIMAJOR_AXIS":"6941.122","COUNTRY_CODE":"US","GP_ID":"228110597","MEAN_ELEMENT_THEORY":"SGP4","ELEMENT_SET_NO":"999","ARG_OF_PERICENTER":"114.9684","OBJECT_NAME":"STARLINK-4436","TLE_LINE2":"2 53479  97.6530 196.2460 0001552 114.9684 245.1702 15.01268023 32312","RCS_SIZE":"LARGE","SITE":"AFWTR","BSTAR":"0.00113780000000","OBJECT_ID":"2022-099Q","TIME_SYSTEM":"UTC","MEAN_MOTION":"15.01268023","EPHEMERIS_TYPE":"0","REV_AT_EPOCH":"3231","REF_FRAME":"TEME","EPOCH":"2023-03-14T19:20:46.501728","APOAPSIS":"564.064","INCLINATION":"97.6530","FILE":"3860643","MEAN_ANOMALY":"245.1702","PERIAPSIS":"561.910","PERIOD":"95.919","DECAY_DATE":null,"CLASSIFICATION_TYPE":"U","TLE_LINE1":"1 53479U 22099Q   23073.80609377  .00014589  00000-0  11378-2 0  9994","MEAN_MOTION_DDOT":"0.0000000000000","NORAD_CAT_ID":"53479","OBJECT_TYPE":"PAYLOAD","ECCENTRICITY":"0.00015520"},{"SITE":"AFWTR","GP_ID":"228052791","ARG_OF_PERICENTER":"87.7857","COUNTRY_CODE":"US","ELEMENT_SET_NO":"999","MEAN_ELEMENT_THEORY":"SGP4","OBJECT_NAME":"STARLINK-4442","RCS_SIZE":"LARGE","TLE_LINE2":"2 53480  97.6540 196.0530 0001592  87.7857 272.3550 15.01278291 32528","LAUNCH_DATE":"2022-08-12","SEMIMAJOR_AXIS":"6941.090","RA_OF_ASC_NODE":"196.0530","MEAN_MOTION_DOT":"0.00017710","CENTER_NAME":"EARTH","EPHEMERIS_TYPE":"0","REV_AT_EPOCH":"3252","BSTAR":"0.00137930000000","OBJECT_ID":"2022-099R","TIME_SYSTEM":"UTC","MEAN_MOTION":"15.01278291","PERIOD":"95.918","MEAN_ANOMALY":"272.3550","FILE":"3860321","INCLINATION":"97.6540","PERIAPSIS":"561.850","APOAPSIS":"564.060","REF_FRAME":"TEME","EPOCH":"2023-03-14T14:38:09.948768","MEAN_MOTION_DDOT":"0.0000000000000","NORAD_CAT_ID":"53480","OBJECT_TYPE":"PAYLOAD","ECCENTRICITY":"0.00015920","DECAY_DATE":null,"CLASSIFICATION_TYPE":"U","TLE_LINE1":"1 53480U 22099R   23073.60983737  .00017710  00000-0  13793-2 0  9991"}];
